{
"type": "FeatureCollection",
"name": "distritos",
"xy_coordinate_resolution": 1e-05,
"features": [
{ "type": "Feature", "properties": { }, "geometry": { "type": "Polygon", "coordinates": [ [ [ -3.72295, 40.41399 ], [ -3.71694, 40.41392 ], [ -3.71677, 40.4087 ], [ -3.71205, 40.40674 ], [ -3.70255, 40.40507 ], [ -3.69186, 40.40844 ], [ -3.6936, 40.41634 ], [ -3.69309, 40.41934 ], [ -3.69046, 40.42526 ], [ -3.69576, 40.42764 ], [ -3.70581, 40.42961 ], [ -3.71623, 40.43065 ], [ -3.71089, 40.42343 ], [ -3.7155, 40.4204 ], [ -3.72019, 40.42025 ], [ -3.72238, 40.41717 ], [ -3.72295, 40.41399 ] ] ] } },
{ "type": "Feature", "properties": { }, "geometry": { "type": "Polygon", "coordinates": [ [ [ -3.69186, 40.40844 ], [ -3.70255, 40.40507 ], [ -3.71205, 40.40674 ], [ -3.71677, 40.4087 ], [ -3.71694, 40.41392 ], [ -3.72295, 40.41399 ], [ -3.72182, 40.40851 ], [ -3.72272, 40.40455 ], [ -3.72171, 40.40095 ], [ -3.71405, 40.39935 ], [ -3.7108, 40.39701 ], [ -3.70464, 40.39523 ], [ -3.68975, 40.38233 ], [ -3.68235, 40.38512 ], [ -3.67915, 40.38999 ], [ -3.67352, 40.39431 ], [ -3.6757, 40.39822 ], [ -3.68467, 40.40323 ], [ -3.69186, 40.40844 ] ] ] } },
{ "type": "Feature", "properties": { }, "geometry": { "type": "Polygon", "coordinates": [ [ [ -3.66521, 40.40634 ], [ -3.6587, 40.41867 ], [ -3.669, 40.42119 ], [ -3.67996, 40.42166 ], [ -3.69309, 40.41934 ], [ -3.6936, 40.41634 ], [ -3.69186, 40.40844 ], [ -3.68467, 40.40323 ], [ -3.6757, 40.39822 ], [ -3.67352, 40.39431 ], [ -3.66828, 40.39964 ], [ -3.66521, 40.40634 ] ] ] } },
{ "type": "Feature", "properties": { }, "geometry": { "type": "Polygon", "coordinates": [ [ [ -3.6587, 40.41867 ], [ -3.66081, 40.43142 ], [ -3.6593, 40.43893 ], [ -3.6606, 40.44461 ], [ -3.67132, 40.43954 ], [ -3.67801, 40.43739 ], [ -3.69072, 40.43798 ], [ -3.68841, 40.43305 ], [ -3.69046, 40.42526 ], [ -3.69309, 40.41934 ], [ -3.67996, 40.42166 ], [ -3.669, 40.42119 ], [ -3.6587, 40.41867 ] ] ] } },
{ "type": "Feature", "properties": { }, "geometry": { "type": "Polygon", "coordinates": [ [ [ -3.6606, 40.44461 ], [ -3.66381, 40.45682 ], [ -3.66841, 40.4667 ], [ -3.67325, 40.47306 ], [ -3.67436, 40.47873 ], [ -3.67346, 40.48406 ], [ -3.67829, 40.48387 ], [ -3.68508, 40.4817 ], [ -3.68712, 40.47415 ], [ -3.68934, 40.46604 ], [ -3.69126, 40.44621 ], [ -3.69072, 40.43798 ], [ -3.67801, 40.43739 ], [ -3.67132, 40.43954 ], [ -3.6606, 40.44461 ] ] ] } },
{ "type": "Feature", "properties": { }, "geometry": { "type": "Polygon", "coordinates": [ [ [ -3.68712, 40.47415 ], [ -3.69999, 40.47498 ], [ -3.70488, 40.47184 ], [ -3.71071, 40.47131 ], [ -3.71328, 40.46851 ], [ -3.70852, 40.46259 ], [ -3.71287, 40.45547 ], [ -3.70831, 40.44709 ], [ -3.69126, 40.44621 ], [ -3.68934, 40.46604 ], [ -3.68712, 40.47415 ] ] ] } },
{ "type": "Feature", "properties": { }, "geometry": { "type": "Polygon", "coordinates": [ [ [ -3.69126, 40.44621 ], [ -3.70831, 40.44709 ], [ -3.71979, 40.44376 ], [ -3.71765, 40.43998 ], [ -3.71841, 40.43478 ], [ -3.71623, 40.43065 ], [ -3.70581, 40.42961 ], [ -3.69576, 40.42764 ], [ -3.69046, 40.42526 ], [ -3.68841, 40.43305 ], [ -3.69072, 40.43798 ], [ -3.69126, 40.44621 ] ] ] } },
{ "type": "Feature", "properties": { }, "geometry": { "type": "Polygon", "coordinates": [ [ [ -3.65761, 40.51172 ], [ -3.66287, 40.52003 ], [ -3.66624, 40.52113 ], [ -3.66598, 40.52448 ], [ -3.67203, 40.52437 ], [ -3.67572, 40.52838 ], [ -3.66932, 40.53438 ], [ -3.67408, 40.53819 ], [ -3.67798, 40.543 ], [ -3.67862, 40.54654 ], [ -3.68248, 40.55132 ], [ -3.68241, 40.55383 ], [ -3.68575, 40.55965 ], [ -3.68956, 40.56869 ], [ -3.70028, 40.57831 ], [ -3.69069, 40.58098 ], [ -3.66719, 40.59212 ], [ -3.66032, 40.59167 ], [ -3.6563, 40.589 ], [ -3.65273, 40.58109 ], [ -3.64959, 40.57719 ], [ -3.63973, 40.57511 ], [ -3.63112, 40.57486 ], [ -3.62501, 40.57361 ], [ -3.61637, 40.58049 ], [ -3.60642, 40.58512 ], [ -3.60185, 40.59239 ], [ -3.60521, 40.59646 ], [ -3.61637, 40.60152 ], [ -3.6168, 40.60697 ], [ -3.6226, 40.61591 ], [ -3.62828, 40.61765 ], [ -3.63015, 40.62828 ], [ -3.63882, 40.6384 ], [ -3.64448, 40.63809 ], [ -3.64876, 40.6414 ], [ -3.65569, 40.64328 ], [ -3.66167, 40.63949 ], [ -3.66835, 40.62889 ], [ -3.66684, 40.61958 ], [ -3.67477, 40.61632 ], [ -3.67922, 40.61117 ], [ -3.68742, 40.60681 ], [ -3.69609, 40.59024 ], [ -3.70859, 40.58352 ], [ -3.71942, 40.58212 ], [ -3.72981, 40.58509 ], [ -3.73817, 40.58647 ], [ -3.74082, 40.59065 ], [ -3.76817, 40.59966 ], [ -3.77826, 40.60173 ], [ -3.78348, 40.60177 ], [ -3.78991, 40.59899 ], [ -3.79674, 40.59989 ], [ -3.80353, 40.59899 ], [ -3.80032, 40.60483 ], [ -3.80738, 40.6092 ], [ -3.81038, 40.60686 ], [ -3.80601, 40.59987 ], [ -3.81613, 40.59501 ], [ -3.82807, 40.5946 ], [ -3.8377, 40.59136 ], [ -3.84169, 40.59267 ], [ -3.85024, 40.59044 ], [ -3.85478, 40.58805 ], [ -3.86353, 40.5895 ], [ -3.86738, 40.59216 ], [ -3.8739, 40.59115 ], [ -3.88348, 40.58527 ], [ -3.88373, 40.5791 ], [ -3.88575, 40.57413 ], [ -3.88896, 40.57086 ], [ -3.88708, 40.56646 ], [ -3.88382, 40.56384 ], [ -3.88209, 40.55964 ], [ -3.87542, 40.5588 ], [ -3.8728, 40.55341 ], [ -3.86567, 40.5434 ], [ -3.86301, 40.53467 ], [ -3.8537, 40.52442 ], [ -3.85437, 40.52134 ], [ -3.85129, 40.51765 ], [ -3.85401, 40.512 ], [ -3.85223, 40.50959 ], [ -3.83711, 40.50589 ], [ -3.8394, 40.49939 ], [ -3.83443, 40.49407 ], [ -3.83331, 40.48598 ], [ -3.83665, 40.47958 ], [ -3.80018, 40.4692 ], [ -3.79436, 40.47016 ], [ -3.78097, 40.47463 ], [ -3.76647, 40.47408 ], [ -3.76359, 40.47252 ], [ -3.75826, 40.47335 ], [ -3.75757, 40.47971 ], [ -3.75151, 40.47846 ], [ -3.75135, 40.47313 ], [ -3.74747, 40.47448 ], [ -3.74029, 40.47419 ], [ -3.73139, 40.47263 ], [ -3.728, 40.47296 ], [ -3.71454, 40.46963 ], [ -3.71328, 40.46851 ], [ -3.71071, 40.47131 ], [ -3.70488, 40.47184 ], [ -3.69999, 40.47498 ], [ -3.68712, 40.47415 ], [ -3.68508, 40.4817 ], [ -3.67829, 40.48387 ], [ -3.67346, 40.48406 ], [ -3.67284, 40.489 ], [ -3.67019, 40.49289 ], [ -3.66178, 40.4999 ], [ -3.65824, 40.50496 ], [ -3.65761, 40.51172 ], [ -3.65761, 40.51172 ] ] ] } },
{ "type": "Feature", "properties": { }, "geometry": { "type": "Polygon", "coordinates": [ [ [ -3.7746, 40.40031 ], [ -3.76436, 40.3994 ], [ -3.75976, 40.40406 ], [ -3.75088, 40.40831 ], [ -3.74185, 40.40921 ], [ -3.73792, 40.41147 ], [ -3.72238, 40.41717 ], [ -3.72019, 40.42025 ], [ -3.7155, 40.4204 ], [ -3.71089, 40.42343 ], [ -3.71623, 40.43065 ], [ -3.71841, 40.43478 ], [ -3.71765, 40.43998 ], [ -3.71979, 40.44376 ], [ -3.70831, 40.44709 ], [ -3.71287, 40.45547 ], [ -3.70852, 40.46259 ], [ -3.71328, 40.46851 ], [ -3.71454, 40.46963 ], [ -3.728, 40.47296 ], [ -3.73139, 40.47263 ], [ -3.74029, 40.47419 ], [ -3.74747, 40.47448 ], [ -3.75135, 40.47313 ], [ -3.75151, 40.47846 ], [ -3.75757, 40.47971 ], [ -3.75826, 40.47335 ], [ -3.76359, 40.47252 ], [ -3.76647, 40.47408 ], [ -3.78097, 40.47463 ], [ -3.79436, 40.47016 ], [ -3.80018, 40.4692 ], [ -3.83665, 40.47958 ], [ -3.83611, 40.47489 ], [ -3.83826, 40.46777 ], [ -3.83435, 40.46442 ], [ -3.82892, 40.46635 ], [ -3.82485, 40.4648 ], [ -3.81521, 40.46364 ], [ -3.81012, 40.46423 ], [ -3.80421, 40.46298 ], [ -3.79575, 40.45782 ], [ -3.79138, 40.44935 ], [ -3.7901, 40.44234 ], [ -3.78457, 40.44438 ], [ -3.77085, 40.44405 ], [ -3.77094, 40.42932 ], [ -3.77913, 40.42427 ], [ -3.7814, 40.41759 ], [ -3.77858, 40.40803 ], [ -3.7746, 40.40031 ] ] ] } },
{ "type": "Feature", "properties": { }, "geometry": { "type": "Polygon", "coordinates": [ [ [ -3.7746, 40.40031 ], [ -3.77761, 40.39911 ], [ -3.78151, 40.39413 ], [ -3.7894, 40.39234 ], [ -3.79379, 40.39358 ], [ -3.7965, 40.39221 ], [ -3.81087, 40.39279 ], [ -3.8204, 40.39662 ], [ -3.83346, 40.39547 ], [ -3.83193, 40.39241 ], [ -3.81329, 40.36983 ], [ -3.81052, 40.36372 ], [ -3.80693, 40.36645 ], [ -3.80286, 40.36333 ], [ -3.79427, 40.36149 ], [ -3.78776, 40.3587 ], [ -3.78032, 40.36186 ], [ -3.77074, 40.36055 ], [ -3.76181, 40.3669 ], [ -3.76294, 40.36902 ], [ -3.76185, 40.37444 ], [ -3.75788, 40.37554 ], [ -3.75595, 40.37855 ], [ -3.75865, 40.38411 ], [ -3.75304, 40.38355 ], [ -3.74474, 40.38801 ], [ -3.74285, 40.39135 ], [ -3.73711, 40.39673 ], [ -3.72552, 40.4054 ], [ -3.72272, 40.40455 ], [ -3.72182, 40.40851 ], [ -3.72295, 40.41399 ], [ -3.72238, 40.41717 ], [ -3.73792, 40.41147 ], [ -3.74185, 40.40921 ], [ -3.75088, 40.40831 ], [ -3.75976, 40.40406 ], [ -3.76436, 40.3994 ], [ -3.7746, 40.40031 ] ] ] } },
{ "type": "Feature", "properties": { }, "geometry": { "type": "Polygon", "coordinates": [ [ [ -3.72089, 40.36555 ], [ -3.71896, 40.38039 ], [ -3.71756, 40.38528 ], [ -3.71368, 40.38891 ], [ -3.70794, 40.3917 ], [ -3.70464, 40.39523 ], [ -3.7108, 40.39701 ], [ -3.71405, 40.39935 ], [ -3.72171, 40.40095 ], [ -3.72272, 40.40455 ], [ -3.72552, 40.4054 ], [ -3.73711, 40.39673 ], [ -3.74285, 40.39135 ], [ -3.74474, 40.38801 ], [ -3.75304, 40.38355 ], [ -3.75865, 40.38411 ], [ -3.75595, 40.37855 ], [ -3.75788, 40.37554 ], [ -3.76185, 40.37444 ], [ -3.76294, 40.36902 ], [ -3.76181, 40.3669 ], [ -3.77074, 40.36055 ], [ -3.75771, 40.35726 ], [ -3.72089, 40.36555 ] ] ] } },
{ "type": "Feature", "properties": { }, "geometry": { "type": "Polygon", "coordinates": [ [ [ -3.72098, 40.36479 ], [ -3.70262, 40.36358 ], [ -3.694, 40.36453 ], [ -3.68192, 40.3613 ], [ -3.68179, 40.36735 ], [ -3.68605, 40.37182 ], [ -3.68975, 40.38233 ], [ -3.70464, 40.39523 ], [ -3.70794, 40.3917 ], [ -3.71368, 40.38891 ], [ -3.71756, 40.38528 ], [ -3.71896, 40.38039 ], [ -3.72089, 40.36555 ], [ -3.72098, 40.36479 ] ] ] } },
{ "type": "Feature", "properties": { }, "geometry": { "type": "Polygon", "coordinates": [ [ [ -3.68192, 40.3613 ], [ -3.67875, 40.36068 ], [ -3.67012, 40.36166 ], [ -3.66445, 40.36414 ], [ -3.6556, 40.36959 ], [ -3.65236, 40.37605 ], [ -3.64151, 40.37795 ], [ -3.62459, 40.38209 ], [ -3.62532, 40.38323 ], [ -3.62189, 40.39084 ], [ -3.62979, 40.39256 ], [ -3.64228, 40.39535 ], [ -3.64491, 40.39663 ], [ -3.65402, 40.40455 ], [ -3.66521, 40.40634 ], [ -3.66828, 40.39964 ], [ -3.67352, 40.39431 ], [ -3.67915, 40.38999 ], [ -3.68235, 40.38512 ], [ -3.68975, 40.38233 ], [ -3.68605, 40.37182 ], [ -3.68179, 40.36735 ], [ -3.68192, 40.3613 ] ] ] } },
{ "type": "Feature", "properties": { }, "geometry": { "type": "Polygon", "coordinates": [ [ [ -3.62036, 40.41308 ], [ -3.63145, 40.41519 ], [ -3.64095, 40.41442 ], [ -3.64647, 40.41505 ], [ -3.6587, 40.41867 ], [ -3.66521, 40.40634 ], [ -3.65402, 40.40455 ], [ -3.64491, 40.39663 ], [ -3.64228, 40.39535 ], [ -3.62979, 40.39256 ], [ -3.62566, 40.40287 ], [ -3.62036, 40.41308 ] ] ] } },
{ "type": "Feature", "properties": { }, "geometry": { "type": "Polygon", "coordinates": [ [ [ -3.62036, 40.41308 ], [ -3.63803, 40.43789 ], [ -3.63547, 40.43858 ], [ -3.64047, 40.44479 ], [ -3.64812, 40.44945 ], [ -3.65628, 40.45943 ], [ -3.66249, 40.46406 ], [ -3.66544, 40.47482 ], [ -3.66488, 40.47837 ], [ -3.66118, 40.48201 ], [ -3.66721, 40.4841 ], [ -3.67346, 40.48406 ], [ -3.67436, 40.47873 ], [ -3.67325, 40.47306 ], [ -3.66841, 40.4667 ], [ -3.66381, 40.45682 ], [ -3.6606, 40.44461 ], [ -3.6593, 40.43893 ], [ -3.66081, 40.43142 ], [ -3.6587, 40.41867 ], [ -3.64647, 40.41505 ], [ -3.64095, 40.41442 ], [ -3.63145, 40.41519 ], [ -3.62036, 40.41308 ] ] ] } },
{ "type": "Feature", "properties": { }, "geometry": { "type": "Polygon", "coordinates": [ [ [ -3.6019, 40.50146 ], [ -3.6113, 40.50895 ], [ -3.61592, 40.5109 ], [ -3.63365, 40.50782 ], [ -3.64484, 40.50788 ], [ -3.64749, 40.51003 ], [ -3.65617, 40.5131 ], [ -3.65761, 40.51172 ], [ -3.65761, 40.51172 ], [ -3.65824, 40.50496 ], [ -3.66178, 40.4999 ], [ -3.67019, 40.49289 ], [ -3.67284, 40.489 ], [ -3.67346, 40.48406 ], [ -3.66721, 40.4841 ], [ -3.66118, 40.48201 ], [ -3.66488, 40.47837 ], [ -3.66544, 40.47482 ], [ -3.66249, 40.46406 ], [ -3.65628, 40.45943 ], [ -3.64812, 40.44945 ], [ -3.63799, 40.44861 ], [ -3.63068, 40.44939 ], [ -3.60776, 40.44967 ], [ -3.60663, 40.4535 ], [ -3.61234, 40.45529 ], [ -3.62025, 40.45974 ], [ -3.62797, 40.46848 ], [ -3.62442, 40.4687 ], [ -3.62572, 40.47508 ], [ -3.62583, 40.48223 ], [ -3.6182, 40.48227 ], [ -3.61554, 40.48496 ], [ -3.60171, 40.48502 ], [ -3.6019, 40.50146 ] ] ] } },
{ "type": "Feature", "properties": { }, "geometry": { "type": "Polygon", "coordinates": [ [ [ -3.65751, 40.32893 ], [ -3.65864, 40.33339 ], [ -3.66284, 40.33897 ], [ -3.66524, 40.3441 ], [ -3.66893, 40.34493 ], [ -3.66942, 40.34862 ], [ -3.67311, 40.35062 ], [ -3.67767, 40.35741 ], [ -3.68192, 40.3613 ], [ -3.694, 40.36453 ], [ -3.70262, 40.36358 ], [ -3.72098, 40.36479 ], [ -3.72493, 40.33499 ], [ -3.72017, 40.33081 ], [ -3.71445, 40.32806 ], [ -3.71254, 40.32349 ], [ -3.70312, 40.32212 ], [ -3.69616, 40.32222 ], [ -3.69302, 40.32011 ], [ -3.68507, 40.32226 ], [ -3.67921, 40.32633 ], [ -3.66918, 40.32517 ], [ -3.66413, 40.32887 ], [ -3.65751, 40.32893 ] ] ] } },
{ "type": "Feature", "properties": { }, "geometry": { "type": "Polygon", "coordinates": [ [ [ -3.56522, 40.36008 ], [ -3.57042, 40.36183 ], [ -3.57893, 40.36703 ], [ -3.58559, 40.3679 ], [ -3.59742, 40.37368 ], [ -3.6007, 40.37671 ], [ -3.59781, 40.37966 ], [ -3.60234, 40.3862 ], [ -3.62189, 40.39084 ], [ -3.62532, 40.38323 ], [ -3.62459, 40.38209 ], [ -3.64151, 40.37795 ], [ -3.65236, 40.37605 ], [ -3.6556, 40.36959 ], [ -3.66445, 40.36414 ], [ -3.67012, 40.36166 ], [ -3.67875, 40.36068 ], [ -3.68192, 40.3613 ], [ -3.67767, 40.35741 ], [ -3.67311, 40.35062 ], [ -3.66942, 40.34862 ], [ -3.66893, 40.34493 ], [ -3.66524, 40.3441 ], [ -3.66284, 40.33897 ], [ -3.65864, 40.33339 ], [ -3.65751, 40.32893 ], [ -3.64916, 40.33342 ], [ -3.636, 40.32507 ], [ -3.63043, 40.32077 ], [ -3.62469, 40.32043 ], [ -3.61597, 40.31776 ], [ -3.61115, 40.31431 ], [ -3.59826, 40.31206 ], [ -3.58744, 40.31279 ], [ -3.58382, 40.31581 ], [ -3.58507, 40.32042 ], [ -3.58249, 40.32626 ], [ -3.57274, 40.33366 ], [ -3.56536, 40.34438 ], [ -3.55891, 40.35027 ], [ -3.55578, 40.35757 ], [ -3.56522, 40.36008 ] ] ] } },
{ "type": "Feature", "properties": { }, "geometry": { "type": "Polygon", "coordinates": [ [ [ -3.57748, 40.42601 ], [ -3.58265, 40.41877 ], [ -3.584, 40.41426 ], [ -3.58862, 40.40843 ], [ -3.59586, 40.41056 ], [ -3.61029, 40.41316 ], [ -3.6108, 40.41794 ], [ -3.61795, 40.41534 ], [ -3.62036, 40.41308 ], [ -3.62566, 40.40287 ], [ -3.62979, 40.39256 ], [ -3.62189, 40.39084 ], [ -3.60234, 40.3862 ], [ -3.59781, 40.37966 ], [ -3.6007, 40.37671 ], [ -3.59742, 40.37368 ], [ -3.58559, 40.3679 ], [ -3.57893, 40.36703 ], [ -3.57042, 40.36183 ], [ -3.56522, 40.36008 ], [ -3.55731, 40.36761 ], [ -3.55103, 40.37678 ], [ -3.539, 40.38811 ], [ -3.53363, 40.39163 ], [ -3.52915, 40.38938 ], [ -3.52041, 40.3921 ], [ -3.5182, 40.40313 ], [ -3.51915, 40.40871 ], [ -3.52249, 40.41404 ], [ -3.53119, 40.42008 ], [ -3.53023, 40.41471 ], [ -3.53517, 40.41441 ], [ -3.53977, 40.41049 ], [ -3.54928, 40.41232 ], [ -3.5534, 40.41169 ], [ -3.56479, 40.41353 ], [ -3.5729, 40.41177 ], [ -3.57764, 40.41366 ], [ -3.57953, 40.41734 ], [ -3.57525, 40.42557 ], [ -3.57748, 40.42601 ] ] ] } },
{ "type": "Feature", "properties": { }, "geometry": { "type": "Polygon", "coordinates": [ [ [ -3.57748, 40.42601 ], [ -3.5738, 40.43767 ], [ -3.56855, 40.43621 ], [ -3.56107, 40.43796 ], [ -3.55316, 40.44126 ], [ -3.53558, 40.44471 ], [ -3.53168, 40.447 ], [ -3.55831, 40.44949 ], [ -3.59709, 40.45016 ], [ -3.60776, 40.44967 ], [ -3.63068, 40.44939 ], [ -3.63799, 40.44861 ], [ -3.64812, 40.44945 ], [ -3.64047, 40.44479 ], [ -3.63547, 40.43858 ], [ -3.63803, 40.43789 ], [ -3.62036, 40.41308 ], [ -3.61795, 40.41534 ], [ -3.6108, 40.41794 ], [ -3.61029, 40.41316 ], [ -3.59586, 40.41056 ], [ -3.58862, 40.40843 ], [ -3.584, 40.41426 ], [ -3.58265, 40.41877 ], [ -3.57748, 40.42601 ] ] ] } },
{ "type": "Feature", "properties": { }, "geometry": { "type": "Polygon", "coordinates": [ [ [ -3.53168, 40.447 ], [ -3.53452, 40.45249 ], [ -3.52903, 40.45838 ], [ -3.52869, 40.46359 ], [ -3.52512, 40.4676 ], [ -3.5263, 40.47014 ], [ -3.53435, 40.47295 ], [ -3.53484, 40.47974 ], [ -3.53695, 40.48644 ], [ -3.54106, 40.48879 ], [ -3.54178, 40.49409 ], [ -3.55109, 40.49817 ], [ -3.55521, 40.50315 ], [ -3.55426, 40.51134 ], [ -3.56175, 40.51116 ], [ -3.57205, 40.5124 ], [ -3.5829, 40.50846 ], [ -3.59323, 40.50153 ], [ -3.6019, 40.50146 ], [ -3.60171, 40.48502 ], [ -3.61554, 40.48496 ], [ -3.6182, 40.48227 ], [ -3.62583, 40.48223 ], [ -3.62572, 40.47508 ], [ -3.62442, 40.4687 ], [ -3.62797, 40.46848 ], [ -3.62025, 40.45974 ], [ -3.61234, 40.45529 ], [ -3.60663, 40.4535 ], [ -3.60776, 40.44967 ], [ -3.59709, 40.45016 ], [ -3.55831, 40.44949 ], [ -3.53168, 40.447 ] ] ] } }
]
}
