{
"type": "FeatureCollection",
"name": "municipio",
"xy_coordinate_resolution": 1e-05,
"features": [
{ "type": "Feature", "properties": { "nombre": "Madrid" }, "geometry": { "type": "Polygon", "coordinates": [ [ [ -3.66054, 40.32773 ], [ -3.64916, 40.33342 ], [ -3.636, 40.32507 ], [ -3.63043, 40.32077 ], [ -3.62469, 40.32043 ], [ -3.61597, 40.31776 ], [ -3.61115, 40.31431 ], [ -3.59826, 40.31206 ], [ -3.58744, 40.31279 ], [ -3.58382, 40.31581 ], [ -3.58507, 40.32042 ], [ -3.58249, 40.32626 ], [ -3.57274, 40.33366 ], [ -3.56536, 40.34438 ], [ -3.55891, 40.35027 ], [ -3.55578, 40.35757 ], [ -3.56522, 40.36008 ], [ -3.55731, 40.36761 ], [ -3.55103, 40.37678 ], [ -3.539, 40.38811 ], [ -3.53363, 40.39163 ], [ -3.52915, 40.38938 ], [ -3.52041, 40.3921 ], [ -3.5182, 40.40313 ], [ -3.51915, 40.40871 ], [ -3.52249, 40.41404 ], [ -3.53119, 40.42008 ], [ -3.53023, 40.41471 ], [ -3.53517, 40.41441 ], [ -3.53977, 40.41049 ], [ -3.54928, 40.41232 ], [ -3.5534, 40.41169 ], [ -3.56479, 40.41353 ], [ -3.5729, 40.41177 ], [ -3.57764, 40.41366 ], [ -3.57953, 40.41734 ], [ -3.57525, 40.42557 ], [ -3.57633, 40.42968 ], [ -3.57912, 40.43362 ], [ -3.57511, 40.4341 ], [ -3.5738, 40.43767 ], [ -3.56855, 40.43621 ], [ -3.56107, 40.43796 ], [ -3.55316, 40.44126 ], [ -3.53558, 40.44471 ], [ -3.53115, 40.44687 ], [ -3.53452, 40.45249 ], [ -3.53196, 40.45472 ], [ -3.52656, 40.45598 ], [ -3.52903, 40.45838 ], [ -3.52869, 40.46359 ], [ -3.52512, 40.4676 ], [ -3.5263, 40.47014 ], [ -3.53265, 40.47138 ], [ -3.53435, 40.47295 ], [ -3.53484, 40.47974 ], [ -3.53695, 40.48644 ], [ -3.54106, 40.48879 ], [ -3.54178, 40.49409 ], [ -3.55109, 40.49817 ], [ -3.55521, 40.50315 ], [ -3.55426, 40.51134 ], [ -3.56175, 40.51116 ], [ -3.57205, 40.5124 ], [ -3.5829, 40.50846 ], [ -3.59323, 40.50153 ], [ -3.60335, 40.50176 ], [ -3.60623, 40.50549 ], [ -3.61592, 40.5109 ], [ -3.63365, 40.50782 ], [ -3.64484, 40.50788 ], [ -3.64749, 40.51003 ], [ -3.65617, 40.5131 ], [ -3.65788, 40.51146 ], [ -3.66287, 40.52003 ], [ -3.66624, 40.52113 ], [ -3.66598, 40.52448 ], [ -3.67203, 40.52437 ], [ -3.67507, 40.52558 ], [ -3.67572, 40.52838 ], [ -3.66932, 40.53438 ], [ -3.67408, 40.53819 ], [ -3.67798, 40.543 ], [ -3.67862, 40.54654 ], [ -3.68248, 40.55132 ], [ -3.68241, 40.55383 ], [ -3.68575, 40.55965 ], [ -3.68956, 40.56869 ], [ -3.70028, 40.57831 ], [ -3.69069, 40.58098 ], [ -3.66719, 40.59212 ], [ -3.66032, 40.59167 ], [ -3.6563, 40.589 ], [ -3.65273, 40.58109 ], [ -3.64959, 40.57719 ], [ -3.64265, 40.57642 ], [ -3.63973, 40.57511 ], [ -3.63112, 40.57486 ], [ -3.62501, 40.57361 ], [ -3.61637, 40.58049 ], [ -3.61191, 40.5819 ], [ -3.60642, 40.58512 ], [ -3.60298, 40.58901 ], [ -3.60185, 40.59239 ], [ -3.60521, 40.59646 ], [ -3.61637, 40.60152 ], [ -3.6168, 40.60697 ], [ -3.6226, 40.61591 ], [ -3.62828, 40.61765 ], [ -3.63015, 40.62828 ], [ -3.63293, 40.63069 ], [ -3.63882, 40.6384 ], [ -3.64448, 40.63809 ], [ -3.64876, 40.6414 ], [ -3.65569, 40.64328 ], [ -3.66167, 40.63949 ], [ -3.66835, 40.62889 ], [ -3.66684, 40.61958 ], [ -3.67477, 40.61632 ], [ -3.67922, 40.61117 ], [ -3.68742, 40.60681 ], [ -3.69609, 40.59024 ], [ -3.70539, 40.5847 ], [ -3.70859, 40.58352 ], [ -3.71942, 40.58212 ], [ -3.72981, 40.58509 ], [ -3.73817, 40.58647 ], [ -3.74082, 40.59065 ], [ -3.74926, 40.59271 ], [ -3.7522, 40.59434 ], [ -3.76817, 40.59966 ], [ -3.77826, 40.60173 ], [ -3.78348, 40.60177 ], [ -3.78991, 40.59899 ], [ -3.79674, 40.59989 ], [ -3.80353, 40.59899 ], [ -3.80032, 40.60483 ], [ -3.80738, 40.6092 ], [ -3.81038, 40.60686 ], [ -3.80601, 40.59987 ], [ -3.81613, 40.59501 ], [ -3.82807, 40.5946 ], [ -3.8377, 40.59136 ], [ -3.84169, 40.59267 ], [ -3.85024, 40.59044 ], [ -3.85478, 40.58805 ], [ -3.86353, 40.5895 ], [ -3.86738, 40.59216 ], [ -3.8739, 40.59115 ], [ -3.87685, 40.58863 ], [ -3.88348, 40.58527 ], [ -3.88373, 40.5791 ], [ -3.88575, 40.57413 ], [ -3.88896, 40.57086 ], [ -3.88708, 40.56646 ], [ -3.88382, 40.56384 ], [ -3.88209, 40.55964 ], [ -3.87542, 40.5588 ], [ -3.8728, 40.55341 ], [ -3.86567, 40.5434 ], [ -3.86301, 40.53467 ], [ -3.85859, 40.53039 ], [ -3.85773, 40.52788 ], [ -3.8537, 40.52442 ], [ -3.85437, 40.52134 ], [ -3.85129, 40.51765 ], [ -3.85401, 40.512 ], [ -3.85223, 40.50959 ], [ -3.83711, 40.50589 ], [ -3.8394, 40.49939 ], [ -3.83443, 40.49407 ], [ -3.83331, 40.48598 ], [ -3.83635, 40.4812 ], [ -3.83826, 40.46777 ], [ -3.83435, 40.46442 ], [ -3.82892, 40.46635 ], [ -3.82485, 40.4648 ], [ -3.81521, 40.46364 ], [ -3.81012, 40.46423 ], [ -3.80421, 40.46298 ], [ -3.79575, 40.45782 ], [ -3.79138, 40.44935 ], [ -3.7901, 40.44234 ], [ -3.78457, 40.44438 ], [ -3.77604, 40.44368 ], [ -3.77085, 40.44405 ], [ -3.77094, 40.42932 ], [ -3.77913, 40.42427 ], [ -3.7814, 40.41759 ], [ -3.77858, 40.40803 ], [ -3.7746, 40.40031 ], [ -3.77761, 40.39911 ], [ -3.78151, 40.39413 ], [ -3.7894, 40.39234 ], [ -3.79379, 40.39358 ], [ -3.7965, 40.39221 ], [ -3.80428, 40.39202 ], [ -3.81087, 40.39279 ], [ -3.8204, 40.39662 ], [ -3.82901, 40.39646 ], [ -3.83346, 40.39547 ], [ -3.83193, 40.39241 ], [ -3.82373, 40.38214 ], [ -3.81329, 40.36983 ], [ -3.81052, 40.36372 ], [ -3.80693, 40.36645 ], [ -3.80286, 40.36333 ], [ -3.79427, 40.36149 ], [ -3.78776, 40.3587 ], [ -3.78032, 40.36186 ], [ -3.75771, 40.35726 ], [ -3.72089, 40.36555 ], [ -3.72493, 40.33499 ], [ -3.72017, 40.33081 ], [ -3.71445, 40.32806 ], [ -3.71254, 40.32349 ], [ -3.70312, 40.32212 ], [ -3.69616, 40.32222 ], [ -3.69302, 40.32011 ], [ -3.68507, 40.32226 ], [ -3.67921, 40.32633 ], [ -3.66918, 40.32517 ], [ -3.66413, 40.32887 ], [ -3.66054, 40.32773 ] ] ] } }
]
}
